STARLINK-6053           
1 56466U 23064U   24038.05396887  .00000570  00000+0  55529-4 0  9996
2 56466  69.9984 264.6776 0002812 270.8693  89.2144 14.98333878 41524
STARLINK-6055           
1 56467U 23064V   24037.94109733 -.00000236  00000+0 -11956-4 0  9993
2 56467  69.9987 245.2173 0002690 265.0760  95.0092 14.98333790 41631
STARLINK-5998           
1 56468U 23064W   24038.04562038  .00000363  00000+0  38202-4 0  9999
2 56468  69.9980 264.6470 0002855 268.9939  91.0893 14.98333380 41521
STARLINK-5518           
1 56469U 23064X   24037.88685991 -.00000329  00000+0 -19742-4 0  9997
2 56469  69.9988 245.4320 0002677 267.7313  92.3539 14.98333081 41626
STARLINK-5523           
1 56470U 23064Y   24038.01202183 -.00001692  00000+0 -13406-3 0  9997
2 56470  69.9985 245.0643 0002958 269.2180  90.8640 14.98327279 42001
STARLINK-5521           
1 56471U 23064Z   24038.00368446  .00000040  00000+0  11152-4 0  9993
2 56471  69.9986 245.0339 0002760 270.8060  89.2782 14.98331597 42008
STARLINK-5038           
1 56472U 23064AA  24037.93709210 -.00000205  00000+0 -93677-5 0  9991
2 56472  69.9987 245.2033 0002763 271.9613  88.1230 14.98331020 41637
STARLINK-5486           
1 56473U 23064AB  24037.92440155  .00000426  00000+0  43481-4 0  9991
2 56473  69.9983 245.1585 0002600 269.2777  90.8084 14.98331877 41633
STARLINK-5524           
1 56474U 23064AC  24037.94944692  .00000135  00000+0  19084-4 0  9998
2 56474  69.9988 245.2489 0002518 266.4250  93.6621 14.98332233 41631
STARLINK-5541           
1 56475U 23064AD  24037.91204445  .00000128  00000+0  18491-4 0  9994
2 56475  69.9981 245.1161 0002822 269.5076  90.5760 14.98331017 41638
STARLINK-5545           
1 56476U 23064AE  24037.93274952  .00000414  00000+0  42503-4 0  9996
2 56476  69.9983 245.1871 0002875 269.7539  90.3290 14.98332118 41632
STARLINK-5534           
1 56477U 23064AF  24037.90787045 -.00000137  00000+0 -37293-5 0  9991
2 56477  69.9981 245.1014 0002814 269.6076  90.4760 14.98331099 41638
STARLINK-6041           
1 56478U 23064AG  24037.98698654  .00000183  00000+0  23122-4 0  9991
2 56478  69.9983 244.9762 0002645 270.5696  89.5160 14.98332534 42009
STARLINK-6044           
1 56479U 23064AH  24037.89518158  .00000155  00000+0  20788-4 0  9996
2 56479  69.9982 245.0570 0002786 269.9597  90.1242 14.98331867 41631
STARLINK-6214           
1 56480U 23064AJ  24037.99533328  .00000624  00000+0  60053-4 0  9995
2 56480  69.9983 245.0033 0002931 269.6110  90.4714 14.98334165 42001
STARLINK-6222           
1 56481U 23064AK  24037.97029018  .00001365  00000+0  12214-3 0  9998
2 56481  69.9980 244.9172 0002822 273.1903  86.8933 14.98340826 42003
STARLINK-6220           
1 56482U 23064AL  24037.91605253 -.00000018  00000+0  62559-5 0  9998
2 56482  69.9980 245.1305 0002791 268.5303  91.5537 14.98332858 41639
