[{"OBJECT_NAME":"STARLINK-6053","OBJECT_ID":"2023-064U","EPOCH":"2024-02-07T01:17:42.910368","MEAN_MOTION":14.98333878,"ECCENTRICITY":0.0002812,"INCLINATION":69.9984,"RA_OF_ASC_NODE":264.6776,"ARG_OF_PERICENTER":270.8693,"MEAN_ANOMALY":89.2144,"EPHEMERIS_TYPE":0,"CLASSIFICATION_TYPE":"U","NORAD_CAT_ID":56466,"ELEMENT_SET_NO":999,"REV_AT_EPOCH":4152,"BSTAR":5.5529e-5,"MEAN_MOTION_DOT":5.7e-6,"MEAN_MOTION_DDOT":0},{"OBJECT_NAME":"STARLINK-6055","OBJECT_ID":"2023-064V","EPOCH":"2024-02-06T22:35:10.809312","MEAN_MOTION":14.9833379,"ECCENTRICITY":0.000269,"INCLINATION":69.9987,"RA_OF_ASC_NODE":245.2173,"ARG_OF_PERICENTER":265.076,"MEAN_ANOMALY":95.0092,"EPHEMERIS_TYPE":0,"CLASSIFICATION_TYPE":"U","NORAD_CAT_ID":56467,"ELEMENT_SET_NO":999,"REV_AT_EPOCH":4163,"BSTAR":-1.1956e-5,"MEAN_MOTION_DOT":-2.36e-6,"MEAN_MOTION_DDOT":0},{"OBJECT_NAME":"STARLINK-5998","OBJECT_ID":"2023-064W","EPOCH":"2024-02-07T01:05:41.600832","MEAN_MOTION":14.9833338,"ECCENTRICITY":0.0002855,"INCLINATION":69.998,"RA_OF_ASC_NODE":264.647,"ARG_OF_PERICENTER":268.9939,"MEAN_ANOMALY":91.0893,"EPHEMERIS_TYPE":0,"CLASSIFICATION_TYPE":"U","NORAD_CAT_ID":56468,"ELEMENT_SET_NO":999,"REV_AT_EPOCH":4152,"BSTAR":3.8202e-5,"MEAN_MOTION_DOT":3.63e-6,"MEAN_MOTION_DDOT":0},{"OBJECT_NAME":"STARLINK-5518","OBJECT_ID":"2023-064X","EPOCH":"2024-02-06T21:17:04.696224","MEAN_MOTION":14.98333081,"ECCENTRICITY":0.0002677,"INCLINATION":69.9988,"RA_OF_ASC_NODE":245.432,"ARG_OF_PERICENTER":267.7313,"MEAN_ANOMALY":92.3539,"EPHEMERIS_TYPE":0,"CLASSIFICATION_TYPE":"U","NORAD_CAT_ID":56469,"ELEMENT_SET_NO":999,"REV_AT_EPOCH":4162,"BSTAR":-1.9742e-5,"MEAN_MOTION_DOT":-3.29e-6,"MEAN_MOTION_DDOT":0},{"OBJECT_NAME":"STARLINK-5523","OBJECT_ID":"2023-064Y","EPOCH":"2024-02-07T00:17:18.686112","MEAN_MOTION":14.98327279,"ECCENTRICITY":0.0002958,"INCLINATION":69.9985,"RA_OF_ASC_NODE":245.0643,"ARG_OF_PERICENTER":269.218,"MEAN_ANOMALY":90.864,"EPHEMERIS_TYPE":0,"CLASSIFICATION_TYPE":"U","NORAD_CAT_ID":56470,"ELEMENT_SET_NO":999,"REV_AT_EPOCH":4200,"BSTAR":-0.00013406,"MEAN_MOTION_DOT":-1.692e-5,"MEAN_MOTION_DDOT":0},{"OBJECT_NAME":"STARLINK-5521","OBJECT_ID":"2023-064Z","EPOCH":"2024-02-07T00:05:18.337344","MEAN_MOTION":14.98331597,"ECCENTRICITY":0.000276,"INCLINATION":69.9986,"RA_OF_ASC_NODE":245.0339,"ARG_OF_PERICENTER":270.806,"MEAN_ANOMALY":89.2782,"EPHEMERIS_TYPE":0,"CLASSIFICATION_TYPE":"U","NORAD_CAT_ID":56471,"ELEMENT_SET_NO":999,"REV_AT_EPOCH":4200,"BSTAR":1.1152e-5,"MEAN_MOTION_DOT":4.0e-7,"MEAN_MOTION_DDOT":0},{"OBJECT_NAME":"STARLINK-5038","OBJECT_ID":"2023-064AA","EPOCH":"2024-02-06T22:29:24.757440","MEAN_MOTION":14.9833102,"ECCENTRICITY":0.0002763,"INCLINATION":69.9987,"RA_OF_ASC_NODE":245.2033,"ARG_OF_PERICENTER":271.9613,"MEAN_ANOMALY":88.123,"EPHEMERIS_TYPE":0,"CLASSIFICATION_TYPE":"U","NORAD_CAT_ID":56472,"ELEMENT_SET_NO":999,"REV_AT_EPOCH":4163,"BSTAR":-9.3677e-6,"MEAN_MOTION_DOT":-2.05e-6,"MEAN_MOTION_DDOT":0},{"OBJECT_NAME":"STARLINK-5486","OBJECT_ID":"2023-064AB","EPOCH":"2024-02-06T22:11:08.293920","MEAN_MOTION":14.98331877,"ECCENTRICITY":0.00026,"INCLINATION":69.9983,"RA_OF_ASC_NODE":245.1585,"ARG_OF_PERICENTER":269.2777,"MEAN_ANOMALY":90.8084,"EPHEMERIS_TYPE":0,"CLASSIFICATION_TYPE":"U","NORAD_CAT_ID":56473,"ELEMENT_SET_NO":999,"REV_AT_EPOCH":4163,"BSTAR":4.3481e-5,"MEAN_MOTION_DOT":4.26e-6,"MEAN_MOTION_DDOT":0},{"OBJECT_NAME":"STARLINK-5524","OBJECT_ID":"2023-064AC","EPOCH":"2024-02-06T22:47:12.213888","MEAN_MOTION":14.98332233,"ECCENTRICITY":0.0002518,"INCLINATION":69.9988,"RA_OF_ASC_NODE":245.2489,"ARG_OF_PERICENTER":266.425,"MEAN_ANOMALY":93.6621,"EPHEMERIS_TYPE":0,"CLASSIFICATION_TYPE":"U","NORAD_CAT_ID":56474,"ELEMENT_SET_NO":999,"REV_AT_EPOCH":4163,"BSTAR":1.9084e-5,"MEAN_MOTION_DOT":1.35e-6,"MEAN_MOTION_DDOT":0},{"OBJECT_NAME":"STARLINK-5541","OBJECT_ID":"2023-064AD","EPOCH":"2024-02-06T21:53:20.640480","MEAN_MOTION":14.98331017,"ECCENTRICITY":0.0002822,"INCLINATION":69.9981,"RA_OF_ASC_NODE":245.1161,"ARG_OF_PERICENTER":269.5076,"MEAN_ANOMALY":90.576,"EPHEMERIS_TYPE":0,"CLASSIFICATION_TYPE":"U","NORAD_CAT_ID":56475,"ELEMENT_SET_NO":999,"REV_AT_EPOCH":4163,"BSTAR":1.8491e-5,"MEAN_MOTION_DOT":1.28e-6,"MEAN_MOTION_DDOT":0},{"OBJECT_NAME":"STARLINK-5545","OBJECT_ID":"2023-064AE","EPOCH":"2024-02-06T22:23:09.558528","MEAN_MOTION":14.98332118,"ECCENTRICITY":0.0002875,"INCLINATION":69.9983,"RA_OF_ASC_NODE":245.1871,"ARG_OF_PERICENTER":269.7539,"MEAN_ANOMALY":90.329,"EPHEMERIS_TYPE":0,"CLASSIFICATION_TYPE":"U","NORAD_CAT_ID":56476,"ELEMENT_SET_NO":999,"REV_AT_EPOCH":4163,"BSTAR":4.2503e-5,"MEAN_MOTION_DOT":4.14e-6,"MEAN_MOTION_DDOT":0},{"OBJECT_NAME":"STARLINK-5534","OBJECT_ID":"2023-064AF","EPOCH":"2024-02-06T21:47:20.006880","MEAN_MOTION":14.98331099,"ECCENTRICITY":0.0002814,"INCLINATION":69.9981,"RA_OF_ASC_NODE":245.1014,"ARG_OF_PERICENTER":269.6076,"MEAN_ANOMALY":90.476,"EPHEMERIS_TYPE":0,"CLASSIFICATION_TYPE":"U","NORAD_CAT_ID":56477,"ELEMENT_SET_NO":999,"REV_AT_EPOCH":4163,"BSTAR":-3.7293e-6,"MEAN_MOTION_DOT":-1.37e-6,"MEAN_MOTION_DDOT":0},{"OBJECT_NAME":"STARLINK-6041","OBJECT_ID":"2023-064AG","EPOCH":"2024-02-06T23:41:15.637056","MEAN_MOTION":14.98332534,"ECCENTRICITY":0.0002645,"INCLINATION":69.9983,"RA_OF_ASC_NODE":244.9762,"ARG_OF_PERICENTER":270.5696,"MEAN_ANOMALY":89.516,"EPHEMERIS_TYPE":0,"CLASSIFICATION_TYPE":"U","NORAD_CAT_ID":56478,"ELEMENT_SET_NO":999,"REV_AT_EPOCH":4200,"BSTAR":2.3122e-5,"MEAN_MOTION_DOT":1.83e-6,"MEAN_MOTION_DDOT":0},{"OBJECT_NAME":"STARLINK-6044","OBJECT_ID":"2023-064AH","EPOCH":"2024-02-06T21:29:03.688512","MEAN_MOTION":14.98331867,"ECCENTRICITY":0.0002786,"INCLINATION":69.9982,"RA_OF_ASC_NODE":245.057,"ARG_OF_PERICENTER":269.9597,"MEAN_ANOMALY":90.1242,"EPHEMERIS_TYPE":0,"CLASSIFICATION_TYPE":"U","NORAD_CAT_ID":56479,"ELEMENT_SET_NO":999,"REV_AT_EPOCH":4163,"BSTAR":2.0788e-5,"MEAN_MOTION_DOT":1.55e-6,"MEAN_MOTION_DDOT":0},{"OBJECT_NAME":"STARLINK-6214","OBJECT_ID":"2023-064AJ","EPOCH":"2024-02-06T23:53:16.795392","MEAN_MOTION":14.98334165,"ECCENTRICITY":0.0002931,"INCLINATION":69.9983,"RA_OF_ASC_NODE":245.0033,"ARG_OF_PERICENTER":269.611,"MEAN_ANOMALY":90.4714,"EPHEMERIS_TYPE":0,"CLASSIFICATION_TYPE":"U","NORAD_CAT_ID":56480,"ELEMENT_SET_NO":999,"REV_AT_EPOCH":4200,"BSTAR":6.0053e-5,"MEAN_MOTION_DOT":6.24e-6,"MEAN_MOTION_DDOT":0},{"OBJECT_NAME":"STARLINK-6222","OBJECT_ID":"2023-064AK","EPOCH":"2024-02-06T23:17:13.071552","MEAN_MOTION":14.98340826,"ECCENTRICITY":0.0002822,"INCLINATION":69.998,"RA_OF_ASC_NODE":244.9172,"ARG_OF_PERICENTER":273.1903,"MEAN_ANOMALY":86.8933,"EPHEMERIS_TYPE":0,"CLASSIFICATION_TYPE":"U","NORAD_CAT_ID":56481,"ELEMENT_SET_NO":999,"REV_AT_EPOCH":4200,"BSTAR":0.00012214,"MEAN_MOTION_DOT":1.365e-5,"MEAN_MOTION_DDOT":0},{"OBJECT_NAME":"STARLINK-6220","OBJECT_ID":"2023-064AL","EPOCH":"2024-02-06T21:59:06.938592","MEAN_MOTION":14.98332858,"ECCENTRICITY":0.0002791,"INCLINATION":69.998,"RA_OF_ASC_NODE":245.1305,"ARG_OF_PERICENTER":268.5303,"MEAN_ANOMALY":91.5537,"EPHEMERIS_TYPE":0,"CLASSIFICATION_TYPE":"U","NORAD_CAT_ID":56482,"ELEMENT_SET_NO":999,"REV_AT_EPOCH":4163,"BSTAR":6.2559e-6,"MEAN_MOTION_DOT":-1.8e-7,"MEAN_MOTION_DDOT":0}]
